IRIDIUM 921 [-]         
1 24873U 97034E   23346.58468601  .00011177  00000+0  39818-3 0  9991
2 24873  86.3863  20.1098 0002853 211.4989 148.6088 15.28796908446433
IRIDIUM 22 [-]          
1 24907U 97043E   23346.54952261  .00000349  00000+0  11564-3 0  9992
2 24907  86.3958 345.5856 0002174  92.1001 268.0444 14.35017923377499
DUMMY MASS 1 [-]        
1 24925U 97048A   23346.66501187  .00000352  00000+0  37140-4 0  9990
2 24925  86.3355  30.6041 0004999 319.4505  40.6346 14.85960223423053
DUMMY MASS 2 [-]        
1 24926U 97048B   23346.60394068  .00000354  00000+0  37543-4 0  9992
2 24926  86.3355  32.1420 0006185 331.1493  28.9389 14.85721037422837
IRIDIUM 29 [-]          
1 24944U 97051A   23346.61179348  .00000375  00000+0  12365-3 0  9996
2 24944  86.3965  15.5152 0001937  93.3733 266.7685 14.35475612373976
IRIDIUM 33 [-]          
1 24946U 97051C   23346.60665718  .00000236  00000+0  77023-4 0  9997
2 24946  86.3881  14.7861 0010073  84.1055 276.1288 14.34197655373521
IRIDIUM 28 [-]          
1 24948U 97051E   23346.59999427  .00000340  00000+0  10931-3 0  9994
2 24948  86.3971  13.3542 0002645  94.0192 266.1307 14.36417623374492
